STARLINK-1730
1 26563C 20070AH  21325.18106006  .00000549  00000-0  36803-4 0  3253
2 26563  53.0534   2.4074 0001733  69.2342 319.4355 15.06394813    14
